OBJECT_NAME,OBJECT_ID,EPOCH,MEAN_MOTION,ECCENTRICITY,INCLINATION,RA_OF_ASC_NODE,ARG_OF_PERICENTER,MEAN_ANOMALY,EPHEMERIS_TYPE,CLASSIFICATION_TYPE,NORAD_CAT_ID,ELEMENT_SET_NO,REV_AT_EPOCH,BSTAR,MEAN_MOTION_DOT,MEAN_MOTION_DDOT
STARLINK-37975,2026-147D,2026-07-13T01:52:14.945664,15.80884304,.0000665,97.2842,230.3474,37.6587,322.4727,0,U,69707,999,352,.92423E-3,.181179E-2,0
STARLINK-37972,2026-147E,2026-07-13T01:51:10.141344,15.80985607,.0001416,97.2827,230.3483,131.9783,228.1606,0,U,69708,999,352,.17708E-2,.356013E-2,0
STARLINK-37963,2026-147F,2026-07-13T01:50:05.000928,15.80899599,.0000386,97.2834,230.3484,76.4176,283.7135,0,U,69709,999,352,.10895E-2,.214593E-2,0
STARLINK-37969,2026-147G,2026-07-13T01:49:00.117120,15.80894466,.0001376,97.2833,230.3502,120.6066,239.5338,0,U,69710,999,352,.96405E-3,.189256E-2,0
STARLINK-37956,2026-147H,2026-07-13T01:47:55.248000,15.80884385,.000119,97.2836,230.3520,106.0928,254.0471,0,U,69711,999,352,.84334E-3,.165002E-2,0
STARLINK-38043,2026-147J,2026-07-13T01:46:50.439360,15.80996319,.0001533,97.2837,230.3525,124.4004,235.7409,0,U,69712,999,352,.18611E-2,.375187E-2,0
STARLINK-38020,2026-147K,2026-07-13T01:45:45.393120,15.80908550,.0001844,97.2834,230.3535,120.1791,239.9660,0,U,69713,999,352,.9343E-3,.183409E-2,0
STARLINK-38059,2026-147L,2026-07-13T01:44:40.435872,15.80911690,.0001261,97.2835,230.3547,96.6243,263.5169,0,U,69714,999,352,.11954E-2,.236164E-2,0
STARLINK-38061,2026-147M,2026-07-12T13:34:22.569600,15.80946327,.000091,97.2850,229.8216,70.5343,289.6024,0,U,69715,999,344,.10183E-2,.200648E-2,0
STARLINK-38060,2026-147N,2026-07-13T01:42:30.705408,15.80878954,.0000713,97.2840,230.3572,66.2004,293.9339,0,U,69716,999,352,.10349E-2,.203365E-2,0
STARLINK-38040,2026-147P,2026-07-12T13:32:12.401952,15.80996736,.0000557,97.2846,229.8231,18.4300,341.6989,0,U,69717,999,344,.16918E-2,.339677E-2,0
STARLINK-37989,2026-147Q,2026-07-12T08:00:01.999872,15.80858469,.00013257,97.2834,229.5802,94.5508,37.9655,0,U,69718,999,337,-.51826548E-3,-.98494E-3,0
STARLINK-38039,2026-147R,2026-07-11T01:02:21.239232,15.81797917,.000484,97.2728,228.2092,174.3599,185.7725,0,U,69719,999,320,.19472E-2,.40894E-2,0
STARLINK-38003,2026-147S,2026-07-12T22:35:52.728000,15.80931223,.0001517,97.2828,230.2266,107.6188,252.5246,0,U,69720,999,350,.14716E-2,.292942E-2,0
STARLINK-38014,2026-147T,2026-07-12T13:27:52.826976,15.81002046,.0000843,97.2841,229.8266,50.1764,309.9579,0,U,69721,999,344,.18338E-2,.36956E-2,0
STARLINK-37915,2026-147U,2026-07-13T00:04:51.949920,15.80923484,.0001182,97.2823,230.2959,108.9793,251.1604,0,U,69722,999,351,.11491E-2,.226889E-2,0
STARLINK-38007,2026-147V,2026-07-13T03:10:40.715616,15.79494951,.0010022,97.2828,230.4277,113.0026,247.2300,0,U,69723,999,353,-.17424E-1,-.2683838E-1,0
STARLINK-38008,2026-147W,2026-07-13T01:33:51.234048,15.81027502,.000185,97.2825,230.3649,136.2991,223.8424,0,U,69724,999,352,.20246E-2,.410418E-2,0
STARLINK-38021,2026-147X,2026-07-13T01:32:46.231008,15.80881820,.0000872,97.2838,230.3662,105.6071,254.5293,0,U,69725,999,352,.10801E-2,.212513E-2,0
STARLINK-38015,2026-147Y,2026-07-13T01:31:41.492352,15.81014941,.0001539,97.2826,230.3665,146.1115,214.0252,0,U,69726,999,352,.20017E-2,.40531E-2,0
STARLINK-38010,2026-147Z,2026-07-13T01:53:32.872416,15.75227151,.0001113,97.2840,230.3457,90.9427,269.1966,0,U,69727,999,352,.59782E-3,.90129E-3,0
SXM-11,2026-148A,2026-07-12T14:39:00.362304,1.00371494,.0006024,0.1203,265.0138,283.4113,201.3552,0,U,69728,999,29,0,-.4E-7,0
HAIYANG-2E,2026-149A,2026-07-12T23:35:23.013600,13.79314780,.0001576,99.3453,200.9373,94.2447,265.8885,0,U,69737,999,152,-.47775E-4,-.93E-6,0
CZ-4B R/B,2026-149B,2026-07-12T22:51:46.798272,14.30067072,.0198228,99.3217,201.8111,336.5469,22.6763,0,U,69738,999,181,.35493E-4,.56E-6,0
STARLINK-38033,2026-150A,2026-07-13T00:00:02.000160,15.80844954,.0001259,97.2836,32.2347,98.9592,286.2183,0,U,69739,999,294,-.31468E-3,-.60085E-3,0
STARLINK-38076,2026-150B,2026-07-13T04:00:01.998720,15.75237507,.000134,97.2830,32.3836,80.4730,107.8174,0,U,69740,999,297,-.11643E-2,-.170723E-2,0
STARLINK-38074,2026-150C,2026-07-13T00:00:02.000160,15.80850020,.000124,97.2840,32.2416,88.9270,310.9269,0,U,69741,999,294,-.36509E-3,-.69626E-3,0
STARLINK-38041,2026-150D,2026-07-13T00:00:02.000160,15.80822095,.0001115,97.2839,32.2436,99.5636,304.2435,0,U,69742,999,294,-.10418E-3,-.20057E-3,0
STARLINK-38087,2026-150E,2026-07-13T00:00:02.000160,15.80814600,.0001053,97.2840,32.2445,97.0104,311.4402,0,U,69743,999,294,.38261E-6,-.68E-6,0
STARLINK-38078,2026-150F,2026-07-13T00:00:02.000160,15.80794576,.000145,97.2840,32.2470,97.8958,314.8318,0,U,69744,999,294,.1491E-3,.28484E-3,0
